#aV2023  1 14  0  0  0.00000000     288 DD+AD WGS84 FIT  NGA
## 2244 518400.00000000   300.00000000 59958 0.0000000000000
+   31     1  2  3  4  5  6  7  8  9 10 11 12 13 14 15 16 17
+         18 19 20 21 22 23 24 25 26 27 29 30 31 32  0  0  0
+          0  0  0  0  0  0  0  0  0  0  0  0  0  0  0  0  0
+          0  0  0  0  0  0  0  0  0  0  0  0  0  0  0  0  0
+          0  0  0  0  0  0  0  0  0  0  0  0  0  0  0  0  0
++         2  2  2  2  2  2  2  2  2  2  2  2  2  2  2  2  2
++         2  2  2  2  2  2  2  2  2  2  2  2  2  2  0  0  0
++         0  0  0  0  0  0  0  0  0  0  0  0  0  0  0  0  0
++         0  0  0  0  0  0  0  0  0  0  0  0  0  0  0  0  0
++         0  0  0  0  0  0  0  0  0  0  0  0  0  0  0  0  0
%c cc cc ccc ccc cccc cccc cccc cccc ccccc ccccc ccccc ccccc
%c cc cc ccc ccc cccc cccc cccc cccc ccccc ccccc ccccc ccccc
%f  0.0000000  0.000000000  0.00000000000  0.000000000000000
%f  0.0000000  0.000000000  0.00000000000  0.000000000000000
%i    0    0    0    0      0      0      0      0         0
%i    0    0    0    0      0      0      0      0         0
/*      NGA, ST. LOUIS,MO.                                  
/*   EPHEMERIS COMPUTED FROM 2 DAYS OF DATA                 
/*   EPOCHA v8 SMOOTHER                                     
/*   G2139 IERS2010 SATIGS SATAPC                           
*  2023  1 14 22 40  0.00000000
P  1  13619.253466 -19219.401914  11603.576379    224.392007                    
V  1  -2439.811651  15239.585746  27707.374746     -0.047104                    
P  2 -10550.208691  22598.282118  -8814.365238   -627.280269                    
V  2    -64.662001 -12244.340403 -29016.556268      0.022956                    
P  3  20860.094641 -12668.094849 -10467.136128   -372.119217                    
V  3  13226.397498  -1266.735093  28324.903039      0.022320                    
P  4  10388.812478 -11105.283138 -21768.601165    -48.630957                    
V  4  18813.406722  20262.821627  -1465.287999      0.076692                    
P  5 -25861.162594   4833.258312  -4247.616902   -112.000498                    
V  5   4192.597957  -3944.640670 -31149.681435     -0.014468                    
P  6  -7576.698618 -17513.179179 -18365.120826    558.504534                    
V  6   7543.521935 -22214.579302  18087.219402      0.060310                    
P  7   5736.364382 -25609.404041   1969.143095    258.711259                    
V  7   3973.653948   -990.599392 -31706.836579     -0.062448                    
P  8  18683.044471   -365.819995  18969.260851   -103.597729                    
V  8  16458.234824  17596.396386 -15448.974852     -0.018740                    
P  9   -745.103080 -19045.945265 -18555.894858   -236.385981                    
V  9  17862.339594  15249.189150 -16483.717144      0.065841                    
P 10   8738.436982  12882.383914  21730.861951    -20.426379                    
V 10 -26148.782876   7105.241427   6046.128553     -0.015475                    
P 11 -14405.619740  -4631.107838 -21817.445089    -78.870933                    
V 11   8756.426492 -26297.317835   -233.211098     -0.088198                    
P 12 -22378.212183  10798.834527  -9511.863163   -328.145916                    
V 12 -11949.191252   -226.368260  28791.417827     -0.045522                    
P 13 -19673.047201  -8428.733363  15674.153427    459.431846                    
V 13 -10646.069740 -17168.616895 -22157.202628      0.064153                    
P 14  -5611.481389 -14521.197024  21531.919532    -49.269986                    
V 14  26658.648857  -6153.075439   2677.686949      0.076678                    
P 15 -18584.476125   2911.868859  18403.558206      4.659320                    
V 15 -18136.498009 -16285.403600 -15092.104304      0.032850                    
P 16  25920.548415    677.410836  -7095.338759   -523.829445                    
V 16  -8050.681082   3424.259481 -29890.192632      0.011288                    
P 17 -11113.377047 -22387.308331   9282.263965    693.362424                    
V 17   8904.834719   7072.523644  29184.881636      0.025884                    
P 18  -4381.557115  25709.302747   4612.327065    -99.247950                    
V 18  -4070.244298   4910.081578 -31397.753710     -0.152323                    
P 19 -17799.722038 -19783.449521  -2459.579376    264.165782                    
V 19    -93.062867  -3516.739734  31695.913795      0.050849                    
P 20 -21810.399658  -2026.464114 -14840.599435    457.039743                    
V 20  16367.754927 -10006.704128 -22858.176165     -0.024058                    
P 21  15450.384235 -11087.403877  18794.563296    153.445210                    
V 21  -2533.652597  22867.145439  16878.807214      0.002665                    
P 22  19105.891698  17857.818800  -4698.961984    405.987856                    
V 22   2122.599002   6659.445416  30931.424571      0.079658                    
P 23  -4235.930163  15969.775992  20763.860820      2.499995                    
V 23 -25566.587530   6495.926873 -10351.188725      0.011306                    
P 24 -14266.042237  16128.825618  14923.599418    -30.126514                    
V 24    724.757915 -20020.069266  22244.060834     -0.166935                    
P 25 -14105.770440  15714.902032 -16240.489182    411.331293                    
V 25 -20043.079466   3216.383045  21196.931792      0.033626                    
P 26  19168.726104   7109.614325 -17236.505440    240.297751                    
V 26 -19959.592320   8563.360099 -18440.763320      0.005782                    
P 27  21571.011896  10529.729323  11582.833455    126.968118                    
V 27   9107.786172  11944.797402 -26879.060788     -0.093953                    
P 29  -3030.653515  17259.451881 -19978.773905   -580.413138                    
V 29 -17034.163013 -18660.172361 -13640.941547     -0.022231                    
P 30  -3132.342105 -23001.746905  12759.733359   -533.247605                    
V 30   7464.575241 -14721.851033 -25141.497158      0.009837                    
P 31   9407.494684  15807.077012 -19157.207886   -206.334496                    
V 31  -8547.418615  22648.953167  15069.806884     -0.010795                    
P 32  14827.646881  21248.629985   6465.730004   -364.126228                    
V 32  -7429.298266  -3828.731433  30170.519874     -0.124020                    
EOF
